[{"OBJECT_NAME":"STARLINK-3837","OBJECT_ID":"2022-045AD","EPOCH":"2026-03-09T14:19:34.683744","MEAN_MOTION":15.08834164,"ECCENTRICITY":0.000129,"INCLINATION":53.2178,"RA_OF_ASC_NODE":199.5383,"ARG_OF_PERICENTER":97.351,"MEAN_ANOMALY":262.7629,"EPHEMERIS_TYPE":0,"CLASSIFICATION_TYPE":"U","NORAD_CAT_ID":52358,"ELEMENT_SET_NO":999,"REV_AT_EPOCH":21577,"BSTAR":-8.0173e-5,"MEAN_MOTION_DOT":-1.563e-5,"MEAN_MOTION_DDOT":0},{"OBJECT_NAME":"MEGSAT-1","OBJECT_ID":"2000-057B","EPOCH":"2026-03-09T22:47:17.292480","MEAN_MOTION":15.04862037,"ECCENTRICITY":0.0038022,"INCLINATION":64.552,"RA_OF_ASC_NODE":26.971,"ARG_OF_PERICENTER":294.4401,"MEAN_ANOMALY":65.2751,"EPHEMERIS_TYPE":0,"CLASSIFICATION_TYPE":"U","NORAD_CAT_ID":26546,"ELEMENT_SET_NO":999,"REV_AT_EPOCH":38272,"BSTAR":0.00040228449,"MEAN_MOTION_DOT":5.624e-5,"MEAN_MOTION_DDOT":0}]
